NORAD_CAT_ID,OBJECT_NAME,OBJECT_TYPE,EPOCH,MEAN_MOTION,ECCENTRICITY,INCLINATION,RA_OF_ASC_NODE,ARG_OF_PERICENTER,MEAN_ANOMALY,BSTAR,MEAN_MOTION_DOT,MEAN_MOTION_DDOT,TLE_LINE0,TLE_LINE1,TLE_LINE2,SEMIMAJOR_AXIS,PERIOD,APOGEE,PERIGEE,DECAYED
52347.0,STARLINK-3826,PAYLOAD,2023-06-27 16:04:15,15.08841434,9.55e-05,53.2187,305.546,94.0279,266.0823,0.0001654,2.346e-05,0.0,0 STARLINK-3826,1 52347U 22045S   23178.66961994  .00002346  00000-0  16540-3 0  9999,2 52347  53.2187 305.5460 0000955  94.0279 266.0823 15.08841434 66920,6917.876,95.437,540.402,539.08,0.0
52347.0,STARLINK-3826,PAYLOAD,2023-06-28 07:58:06,15.088367,0.0001014,53.2179,302.5727,79.5481,280.5625,0.00010631,1.404e-05,0.0,0 STARLINK-3826,1 52347U 22045S   23179.33202476  .00001404  00000-0  10631-3 0  9996,2 52347  53.2179 302.5727 0001014  79.5481 280.5625 15.08836700 67027,6917.89,95.438,540.457,539.054,0.0
52347.0,STARLINK-3826,PAYLOAD,2023-06-29 03:02:43,15.08845125,0.0001114,53.2186,299.0012,132.8238,227.2848,2.3066e-05,7.9e-07,0.0,0 STARLINK-3826,1 52347U 22045S   23180.12689788  .00000079  00000-0  23066-4 0  9994,2 52347  53.2186 299.0012 0001114 132.8238 227.2848 15.08845125 67145,6917.865,95.437,540.5,538.959,0.0
52347.0,STARLINK-3826,PAYLOAD,2023-06-29 09:24:16,15.08837802,0.0001051,53.2161,297.8102,109.3887,250.7219,6.054e-05,6.76e-06,0.0,0 STARLINK-3826,1 52347U 22045S   23180.39186290  .00000676  00000-0  60540-4 0  9994,2 52347  53.2161 297.8102 0001051 109.3887 250.7219 15.08837802 67183,6917.887,95.438,540.479,539.025,0.0
52347.0,STARLINK-3826,PAYLOAD,2023-06-29 17:21:11,15.08850255,9.33e-05,53.2175,296.3265,84.7066,275.4033,9.8769e-05,1.285e-05,0.0,0 STARLINK-3826,1 52347U 22045S   23180.72305439  .00001285  00000-0  98769-4 0  9990,2 52347  53.2175 296.3265 0000933  84.7066 275.4033 15.08850255 67236,6917.849,95.437,540.359,539.069,0.0
52347.0,STARLINK-3826,PAYLOAD,2023-06-30 14:01:12,15.0884567,8.77e-05,53.2177,292.459,91.3181,268.7911,2.6222e-05,1.3e-06,0.0,0 STARLINK-3826,1 52347U 22045S   23181.58417733  .00000130  00000-0  26222-4 0  9999,2 52347  53.2177 292.4590 0000877  91.3181 268.7911 15.08845670 67364,6917.863,95.437,540.335,539.121,0.0
52347.0,STARLINK-3826,PAYLOAD,2023-06-30 18:47:21,15.08851255,9.01e-05,53.2178,291.5676,83.8291,276.2804,7.1762e-05,8.55e-06,0.0,0 STARLINK-3826,1 52347U 22045S   23181.78289152  .00000855  00000-0  71762-4 0  9996,2 52347  53.2178 291.5676 0000901  83.8291 276.2804 15.08851255 67390,6917.846,95.437,540.334,539.088,0.0
52347.0,STARLINK-3826,PAYLOAD,2023-07-01 02:44:18,15.08833189,0.0001151,53.2174,290.0834,84.9389,275.1735,3.4251e-05,2.57e-06,0.0,0 STARLINK-3826,1 52347U 22045S   23182.11410368  .00000257  00000-0  34251-4 0  9997,2 52347  53.2174 290.0834 0001151  84.9389 275.1735 15.08833189 67447,6917.901,95.438,540.562,538.97,0.0
52347.0,STARLINK-3826,PAYLOAD,2023-07-02 10:32:01,15.08838433,8.95e-05,53.2172,284.1353,84.8181,275.2914,7.2391e-07,-2.76e-06,0.0,0 STARLINK-3826,1 52347U 22045S   23183.43890537 -.00000276  00000-0  72391-6 0  9994,2 52347  53.2172 284.1353 0000895  84.8181 275.2914 15.08838433 67647,6917.885,95.438,540.369,539.131,0.0
52347.0,STARLINK-3826,PAYLOAD,2023-07-03 11:58:11,15.08841434,8.86e-05,53.2172,279.3784,81.6097,278.4996,4.2016e-05,3.81e-06,0.0,0 STARLINK-3826,1 52347U 22045S   23184.49874370  .00000381  00000-0  42016-4 0  9993,2 52347  53.2172 279.3784 0000886  81.6097 278.4996 15.08841434 67800,6917.876,95.437,540.354,539.128,0.0
52347.0,STARLINK-3826,PAYLOAD,2023-07-04 00:41:16,15.08835058,9.68e-05,53.2175,276.9999,91.3484,268.7619,6.5712e-05,7.58e-06,0.0,0 STARLINK-3826,1 52347U 22045S   23185.02866852  .00000758  00000-0  65712-4 0  9995,2 52347  53.2175 276.9999 0000968  91.3484 268.7619 15.08835058 67880,6917.895,95.438,540.43,539.091,0.0
52347.0,STARLINK-3826,PAYLOAD,2023-07-05 05:18:13,15.08834433,0.0001024,53.2172,271.6469,85.3668,274.7441,9.7063e-05,1.257e-05,0.0,0 STARLINK-3826,1 52347U 22045S   23186.22099009  .00001257  00000-0  97063-4 0  9999,2 52347  53.2172 271.6469 0001024  85.3668 274.7441 15.08834433 68069,6917.897,95.438,540.471,539.054,0.0
52347.0,STARLINK-3826,PAYLOAD,2023-07-05 22:47:28,15.08809185,0.0001085,53.2169,268.3752,94.6695,265.4421,0.00047698,7.305e-05,0.0,0 STARLINK-3826,1 52347U 22045S   23186.94963902  .00007305  00000-0  47698-3 0  9998,2 52347  53.2169 268.3752 0001085  94.6695 265.4421 15.08809185 68176,6917.975,95.44,540.59,539.089,0.0
52347.0,STARLINK-3826,PAYLOAD,2023-07-06 11:30:33,15.08840192,9.53e-05,53.2169,265.9968,80.2446,279.8654,6.3553e-05,7.24e-06,0.0,0 STARLINK-3826,1 52347U 22045S   23187.47954918  .00000724  00000-0  63553-4 0  9991,2 52347  53.2169 265.9968 0000953  80.2446 279.8654 15.08840192 68255,6917.88,95.438,540.404,539.086,0.0
52347.0,STARLINK-3826,PAYLOAD,2023-07-07 22:29:01,15.0884578,9.77e-05,53.2164,259.4547,78.4115,281.6986,8.4941e-05,1.065e-05,0.0,0 STARLINK-3826,1 52347U 22045S   23188.93682260  .00001065  00000-0  84941-4 0  9994,2 52347  53.2164 259.4547 0000977  78.4115 281.6986 15.08845780 68470,6917.863,95.437,540.404,539.052,0.0
52347.0,STARLINK-3826,PAYLOAD,2023-07-08 08:01:20,15.0883958,0.0001034,53.2163,257.6706,80.7913,279.3196,3.1648e-05,2.16e-06,0.0,0 STARLINK-3826,1 52347U 22045S   23189.33426765  .00000216  00000-0  31648-4 0  9998,2 52347  53.2163 257.6706 0001034  80.7913 279.3196 15.08839580 68538,6917.882,95.438,540.462,539.031,0.0
52347.0,STARLINK-3826,PAYLOAD,2023-07-09 12:38:17,15.08834575,0.0001028,53.217,252.3178,95.3887,264.7222,-5.5149e-05,-1.165e-05,0.0,0 STARLINK-3826,1 52347U 22045S   23190.52659355 -.00001165  00000-0 -55149-4 0  9992,2 52347  53.2170 252.3178 0001028  95.3887 264.7222 15.08834575 68713,6917.897,95.438,540.473,539.051,0.0
52347.0,STARLINK-3826,PAYLOAD,2023-07-10 10:53:41,15.08839556,9.42e-05,53.2165,248.1547,90.4213,269.6887,6.3264e-05,7.19e-06,0.0,0 STARLINK-3826,1 52347U 22045S   23191.45394837  .00000719  00000-0  63264-4 0  9995,2 52347  53.2165 248.1547 0000942  90.4213 269.6887 15.08839556 68853,6917.882,95.438,540.398,539.095,0.0
52347.0,STARLINK-3826,PAYLOAD,2023-07-11 04:22:56,15.08832552,9.37e-05,53.216,244.8835,83.6507,276.4592,6.2456e-05,7.06e-06,0.0,0 STARLINK-3826,1 52347U 22045S   23192.18259471  .00000706  00000-0  62456-4 0  9998,2 52347  53.2160 244.8835 0000937  83.6507 276.4592 15.08832552 68965,6917.903,95.438,540.416,539.12,0.0
52347.0,STARLINK-3826,PAYLOAD,2023-07-12 05:49:06,15.0883681,8.53e-05,53.2159,240.1255,82.9779,277.131,5.1652e-05,5.34e-06,0.0,0 STARLINK-3826,1 52347U 22045S   23193.24243456  .00000534  00000-0  51652-4 0  9997,2 52347  53.2159 240.1255 0000853  82.9779 277.1310 15.08836810 69124,6917.89,95.438,540.345,539.165,0.0
52347.0,STARLINK-3826,PAYLOAD,2023-07-13 12:01:25,15.08840296,0.0001076,53.2166,234.4753,89.9105,270.201,3.0296e-05,1.94e-06,0.0,0 STARLINK-3826,1 52347U 22045S   23194.50099400  .00000194  00000-0  30296-4 0  9998,2 52347  53.2166 234.4753 0001076  89.9105 270.2010 15.08840296 69314,6917.879,95.438,540.489,539.0,0.0
52347.0,STARLINK-3826,PAYLOAD,2023-07-13 19:58:21,15.0883477,0.0001132,53.2158,232.9877,85.5541,274.5581,2.5989e-06,-2.46e-06,0.0,0 STARLINK-3826,1 52347U 22045S   23194.83219903 -.00000246  00000-0  25989-5 0  9999,2 52347  53.2158 232.9877 0001132  85.5541 274.5581 15.08834770 69369,6917.896,95.438,540.544,538.978,0.0
52347.0,STARLINK-3826,PAYLOAD,2023-07-15 02:10:41,15.08842164,0.0001011,53.2155,227.3372,87.0929,273.0179,8.9463e-05,1.136e-05,0.0,0 STARLINK-3826,1 52347U 22045S   23196.09075245  .00001136  00000-0  89463-4 0  9992,2 52347  53.2155 227.3372 0001011  87.0929 273.0179 15.08842164 69551,6917.874,95.437,540.438,539.039,0.0
52347.0,STARLINK-3826,PAYLOAD,2023-07-16 02:01:28,15.08834952,0.0001092,53.2155,222.878,77.7172,282.3942,4.8521e-05,4.84e-06,0.0,0 STARLINK-3826,1 52347U 22045S   23197.08435813  .00000484  00000-0  48521-4 0  9998,2 52347  53.2155 222.8780 0001092  77.7172 282.3942 15.08834952 69703,6917.896,95.438,540.516,539.005,0.0
52347.0,STARLINK-3826,PAYLOAD,2023-07-17 12:59:57,15.0884404,0.0001037,53.2166,216.3363,84.0582,276.0528,1.9936e-05,3e-07,0.0,0 STARLINK-3826,1 52347U 22045S   23198.54163375  .00000030  00000-0  19936-4 0  9996,2 52347  53.2166 216.3363 0001037  84.0582 276.0528 15.08844040 69928,6917.868,95.437,540.45,539.016,0.0
52347.0,STARLINK-3826,PAYLOAD,2023-07-18 00:07:39,15.08833528,0.0001066,53.2167,214.2552,85.1185,274.9929,4.2609e-05,3.9e-06,0.0,0 STARLINK-3826,1 52347U 22045S   23199.00531975  .00000390  00000-0  42609-4 0  9995,2 52347  53.2167 214.2552 0001066  85.1185 274.9929 15.08833528 69997,6917.9,95.438,540.503,539.028,0.0
52347.0,STARLINK-3826,PAYLOAD,2023-07-19 01:33:50,15.08836551,0.0001073,53.2168,209.497,83.9844,276.127,-5.0438e-07,-2.96e-06,0.0,0 STARLINK-3826,1 52347U 22045S   23200.06516218 -.00000296  00000-0 -50438-6 0  9995,2 52347  53.2168 209.4970 0001073  83.9844 276.1270 15.08836551 70156,6917.891,95.438,540.498,539.014,0.0
52347.0,STARLINK-3826,PAYLOAD,2023-07-20 23:40:01,15.08837563,0.0001054,53.2162,200.8721,85.536,274.5753,4.3698e-05,4.08e-06,0.0,0 STARLINK-3826,1 52347U 22045S   23201.98612340  .00000408  00000-0  43698-4 0  9991,2 52347  53.2162 200.8721 0001054  85.5360 274.5753 15.08837563 70443,6917.888,95.438,540.482,539.024,0.0
52347.0,STARLINK-3826,PAYLOAD,2023-07-24 10:20:03,15.08845404,0.0001215,53.2165,185.4098,93.179,266.9341,4.8494e-05,4.84e-06,0.0,0 STARLINK-3826,1 52347U 22045S   23205.43059778  .00000484  00000-0  48494-4 0  9998,2 52347  53.2165 185.4098 0001215  93.1790 266.9341 15.08845404 70960,6917.864,95.437,540.569,538.888,0.0
52347.0,STARLINK-3826,PAYLOAD,2023-07-25 10:10:51,15.08832768,0.0001178,53.2162,180.9501,97.1961,262.9165,8.6226e-06,-1.51e-06,0.0,0 STARLINK-3826,1 52347U 22045S   23206.42420860 -.00000151  00000-0  86226-5 0  9990,2 52347  53.2162 180.9501 0001178  97.1961 262.9165 15.08832768 71115,6917.902,95.438,540.582,538.953,0.0
